2025-313AL              
1 67282U 25313AL  26025.43931927  .00010063  00000+0  45266-3 0  9997
2 67282  97.4082 102.4469 0012179 135.9443 224.2766 15.21235923  4244
HORS 5                  
1 67283U 25313AM  26025.43732843  .00015091  00000+0  67242-3 0  9998
2 67283  97.4088 102.4526 0011925 135.9375 224.2813 15.21462136  4248
LOBACHEVSKY (RS83S)     
1 67284U 25313AN  26025.43995396  .00009978  00000+0  45009-3 0  9997
2 67284  97.4074 102.4431 0012095 135.8160 224.4044 15.21142997  4247
NASBSAT-2               
1 67285U 25313AP  26025.43616823  .00013214  00000+0  58870-3 0  9991
2 67285  97.4065 102.4449 0011570 137.2734 222.9403 15.21502122  4249
2025-313AQ              
1 67286U 25313AQ  26025.43560631  .00014748  00000+0  65640-3 0  9993
2 67286  97.4087 102.4621 0011219 132.5794 227.6390 15.21514172  4245
LUCA (RS90S)            
1 67287U 25313AR  26025.43410657  .00016363  00000+0  72471-3 0  9991
2 67287  97.4085 102.4647 0011113 134.3313 225.8836 15.21661086  4244
2025-313AS              
1 67288U 25313AS  26025.50199267  .00009901  00000+0  44312-3 0  9994
2 67288  97.4076 102.5212 0013038 127.0392 233.2038 15.21405267  4253
NASBSAT-1               
1 67289U 25313AT  26025.43166425  .00022943  00000+0  10060-2 0  9990
2 67289  97.4087 102.4682 0010883 134.8113 225.4010 15.21934318  4244
SAKHACUBE-CHOLBON (RS1*)
1 67290U 25313AU  26025.43255495  .00017760  00000+0  78366-3 0  9993
2 67290  97.4083 102.4664 0010798 133.7164 226.4968 15.21772580  4245
QMR-KWT-2 (RS95S)       
1 67291U 25313AV  26025.43138479  .00024262  00000+0  10633-2 0  9993
2 67291  97.4084 102.4683 0010598 134.0485 226.1626 15.21943389  4241
SITRO-AIS-64            
1 67292U 25313AW  26025.43082691  .00017930  00000+0  78891-3 0  9993
2 67292  97.4088 102.4707 0010491 133.5783 226.6326 15.21871842  4246
SCORPION (RS89S)        
1 67293U 25313AX  26025.49980615  .00007656  00000+0  34286-3 0  9997
2 67293  97.4087 102.5274 0012534 124.9329 235.3086 15.21470165  4250
