CCSDS_OMM_VERS = 2.0
CREATION_DATE  = 
ORIGINATOR     = 

OBJECT_NAME    = 2025-313AL
OBJECT_ID      = 2025-313AL
CENTER_NAME    = EARTH
REF_FRAME      = TEME
TIME_SYSTEM    = UTC
MEAN_ELEMENT_THEORY = SGP/SGP4

EPOCH          = 2026-01-25T10:32:37.184928
MEAN_MOTION    = 15.21235923
ECCENTRICITY   = .0012179
INCLINATION    = 97.4082
RA_OF_ASC_NODE = 102.4469
ARG_OF_PERICENTER = 135.9443
MEAN_ANOMALY   = 224.2766

EPHEMERIS_TYPE = 0
CLASSIFICATION_TYPE = U
NORAD_CAT_ID   = 67282
ELEMENT_SET_NO = 999
REV_AT_EPOCH   = 424
BSTAR          = .45266E-3
MEAN_MOTION_DOT = .10063E-3
MEAN_MOTION_DDOT = 0

CCSDS_OMM_VERS = 2.0
CREATION_DATE  = 
ORIGINATOR     = 

OBJECT_NAME    = HORS 5
OBJECT_ID      = 2025-313AM
CENTER_NAME    = EARTH
REF_FRAME      = TEME
TIME_SYSTEM    = UTC
MEAN_ELEMENT_THEORY = SGP/SGP4

EPOCH          = 2026-01-25T10:29:45.176352
MEAN_MOTION    = 15.21462136
ECCENTRICITY   = .0011925
INCLINATION    = 97.4088
RA_OF_ASC_NODE = 102.4526
ARG_OF_PERICENTER = 135.9375
MEAN_ANOMALY   = 224.2813

EPHEMERIS_TYPE = 0
CLASSIFICATION_TYPE = U
NORAD_CAT_ID   = 67283
ELEMENT_SET_NO = 999
REV_AT_EPOCH   = 424
BSTAR          = .67242E-3
MEAN_MOTION_DOT = .15091E-3
MEAN_MOTION_DDOT = 0

CCSDS_OMM_VERS = 2.0
CREATION_DATE  = 
ORIGINATOR     = 

OBJECT_NAME    = LOBACHEVSKY (RS83S)
OBJECT_ID      = 2025-313AN
CENTER_NAME    = EARTH
REF_FRAME      = TEME
TIME_SYSTEM    = UTC
MEAN_ELEMENT_THEORY = SGP/SGP4

EPOCH          = 2026-01-25T10:33:32.022144
MEAN_MOTION    = 15.21142997
ECCENTRICITY   = .0012095
INCLINATION    = 97.4074
RA_OF_ASC_NODE = 102.4431
ARG_OF_PERICENTER = 135.8160
MEAN_ANOMALY   = 224.4044

EPHEMERIS_TYPE = 0
CLASSIFICATION_TYPE = U
NORAD_CAT_ID   = 67284
ELEMENT_SET_NO = 999
REV_AT_EPOCH   = 424
BSTAR          = .45009E-3
MEAN_MOTION_DOT = .9978E-4
MEAN_MOTION_DDOT = 0

CCSDS_OMM_VERS = 2.0
CREATION_DATE  = 
ORIGINATOR     = 

OBJECT_NAME    = NASBSAT-2
OBJECT_ID      = 2025-313AP
CENTER_NAME    = EARTH
REF_FRAME      = TEME
TIME_SYSTEM    = UTC
MEAN_ELEMENT_THEORY = SGP/SGP4

EPOCH          = 2026-01-25T10:28:04.935072
MEAN_MOTION    = 15.21502122
ECCENTRICITY   = .001157
INCLINATION    = 97.4065
RA_OF_ASC_NODE = 102.4449
ARG_OF_PERICENTER = 137.2734
MEAN_ANOMALY   = 222.9403

EPHEMERIS_TYPE = 0
CLASSIFICATION_TYPE = U
NORAD_CAT_ID   = 67285
ELEMENT_SET_NO = 999
REV_AT_EPOCH   = 424
BSTAR          = .5887E-3
MEAN_MOTION_DOT = .13214E-3
MEAN_MOTION_DDOT = 0

CCSDS_OMM_VERS = 2.0
CREATION_DATE  = 
ORIGINATOR     = 

OBJECT_NAME    = 2025-313AQ
OBJECT_ID      = 2025-313AQ
CENTER_NAME    = EARTH
REF_FRAME      = TEME
TIME_SYSTEM    = UTC
MEAN_ELEMENT_THEORY = SGP/SGP4

EPOCH          = 2026-01-25T10:27:16.385184
MEAN_MOTION    = 15.21514172
ECCENTRICITY   = .0011219
INCLINATION    = 97.4087
RA_OF_ASC_NODE = 102.4621
ARG_OF_PERICENTER = 132.5794
MEAN_ANOMALY   = 227.6390

EPHEMERIS_TYPE = 0
CLASSIFICATION_TYPE = U
NORAD_CAT_ID   = 67286
ELEMENT_SET_NO = 999
REV_AT_EPOCH   = 424
BSTAR          = .6564E-3
MEAN_MOTION_DOT = .14748E-3
MEAN_MOTION_DDOT = 0

CCSDS_OMM_VERS = 2.0
CREATION_DATE  = 
ORIGINATOR     = 

OBJECT_NAME    = LUCA (RS90S)
OBJECT_ID      = 2025-313AR
CENTER_NAME    = EARTH
REF_FRAME      = TEME
TIME_SYSTEM    = UTC
MEAN_ELEMENT_THEORY = SGP/SGP4

EPOCH          = 2026-01-25T10:25:06.807648
MEAN_MOTION    = 15.21661086
ECCENTRICITY   = .0011113
INCLINATION    = 97.4085
RA_OF_ASC_NODE = 102.4647
ARG_OF_PERICENTER = 134.3313
MEAN_ANOMALY   = 225.8836

EPHEMERIS_TYPE = 0
CLASSIFICATION_TYPE = U
NORAD_CAT_ID   = 67287
ELEMENT_SET_NO = 999
REV_AT_EPOCH   = 424
BSTAR          = .72471E-3
MEAN_MOTION_DOT = .16363E-3
MEAN_MOTION_DDOT = 0

CCSDS_OMM_VERS = 2.0
CREATION_DATE  = 
ORIGINATOR     = 

OBJECT_NAME    = 2025-313AS
OBJECT_ID      = 2025-313AS
CENTER_NAME    = EARTH
REF_FRAME      = TEME
TIME_SYSTEM    = UTC
MEAN_ELEMENT_THEORY = SGP/SGP4

EPOCH          = 2026-01-25T12:02:52.166688
MEAN_MOTION    = 15.21405267
ECCENTRICITY   = .0013038
INCLINATION    = 97.4076
RA_OF_ASC_NODE = 102.5212
ARG_OF_PERICENTER = 127.0392
MEAN_ANOMALY   = 233.2038

EPHEMERIS_TYPE = 0
CLASSIFICATION_TYPE = U
NORAD_CAT_ID   = 67288
ELEMENT_SET_NO = 999
REV_AT_EPOCH   = 425
BSTAR          = .44312E-3
MEAN_MOTION_DOT = .9901E-4
MEAN_MOTION_DDOT = 0

CCSDS_OMM_VERS = 2.0
CREATION_DATE  = 
ORIGINATOR     = 

OBJECT_NAME    = NASBSAT-1
OBJECT_ID      = 2025-313AT
CENTER_NAME    = EARTH
REF_FRAME      = TEME
TIME_SYSTEM    = UTC
MEAN_ELEMENT_THEORY = SGP/SGP4

EPOCH          = 2026-01-25T10:21:35.791200
MEAN_MOTION    = 15.21934318
ECCENTRICITY   = .0010883
INCLINATION    = 97.4087
RA_OF_ASC_NODE = 102.4682
ARG_OF_PERICENTER = 134.8113
MEAN_ANOMALY   = 225.4010

EPHEMERIS_TYPE = 0
CLASSIFICATION_TYPE = U
NORAD_CAT_ID   = 67289
ELEMENT_SET_NO = 999
REV_AT_EPOCH   = 424
BSTAR          = .1006E-2
MEAN_MOTION_DOT = .22943E-3
MEAN_MOTION_DDOT = 0

CCSDS_OMM_VERS = 2.0
CREATION_DATE  = 
ORIGINATOR     = 

OBJECT_NAME    = SAKHACUBE-CHOLBON (RS18S)
OBJECT_ID      = 2025-313AU
CENTER_NAME    = EARTH
REF_FRAME      = TEME
TIME_SYSTEM    = UTC
MEAN_ELEMENT_THEORY = SGP/SGP4

EPOCH          = 2026-01-25T10:22:52.747680
MEAN_MOTION    = 15.21772580
ECCENTRICITY   = .0010798
INCLINATION    = 97.4083
RA_OF_ASC_NODE = 102.4664
ARG_OF_PERICENTER = 133.7164
MEAN_ANOMALY   = 226.4968

EPHEMERIS_TYPE = 0
CLASSIFICATION_TYPE = U
NORAD_CAT_ID   = 67290
ELEMENT_SET_NO = 999
REV_AT_EPOCH   = 424
BSTAR          = .78366E-3
MEAN_MOTION_DOT = .1776E-3
MEAN_MOTION_DDOT = 0

CCSDS_OMM_VERS = 2.0
CREATION_DATE  = 
ORIGINATOR     = 

OBJECT_NAME    = QMR-KWT-2 (RS95S)
OBJECT_ID      = 2025-313AV
CENTER_NAME    = EARTH
REF_FRAME      = TEME
TIME_SYSTEM    = UTC
MEAN_ELEMENT_THEORY = SGP/SGP4

EPOCH          = 2026-01-25T10:21:11.645856
MEAN_MOTION    = 15.21943389
ECCENTRICITY   = .0010598
INCLINATION    = 97.4084
RA_OF_ASC_NODE = 102.4683
ARG_OF_PERICENTER = 134.0485
MEAN_ANOMALY   = 226.1626

EPHEMERIS_TYPE = 0
CLASSIFICATION_TYPE = U
NORAD_CAT_ID   = 67291
ELEMENT_SET_NO = 999
REV_AT_EPOCH   = 424
BSTAR          = .10633E-2
MEAN_MOTION_DOT = .24262E-3
MEAN_MOTION_DDOT = 0

CCSDS_OMM_VERS = 2.0
CREATION_DATE  = 
ORIGINATOR     = 

OBJECT_NAME    = SITRO-AIS-64
OBJECT_ID      = 2025-313AW
CENTER_NAME    = EARTH
REF_FRAME      = TEME
TIME_SYSTEM    = UTC
MEAN_ELEMENT_THEORY = SGP/SGP4

EPOCH          = 2026-01-25T10:20:23.445024
MEAN_MOTION    = 15.21871842
ECCENTRICITY   = .0010491
INCLINATION    = 97.4088
RA_OF_ASC_NODE = 102.4707
ARG_OF_PERICENTER = 133.5783
MEAN_ANOMALY   = 226.6326

EPHEMERIS_TYPE = 0
CLASSIFICATION_TYPE = U
NORAD_CAT_ID   = 67292
ELEMENT_SET_NO = 999
REV_AT_EPOCH   = 424
BSTAR          = .78891E-3
MEAN_MOTION_DOT = .1793E-3
MEAN_MOTION_DDOT = 0

CCSDS_OMM_VERS = 2.0
CREATION_DATE  = 
ORIGINATOR     = 

OBJECT_NAME    = SCORPION (RS89S)
OBJECT_ID      = 2025-313AX
CENTER_NAME    = EARTH
REF_FRAME      = TEME
TIME_SYSTEM    = UTC
MEAN_ELEMENT_THEORY = SGP/SGP4

EPOCH          = 2026-01-25T11:59:43.251360
MEAN_MOTION    = 15.21470165
ECCENTRICITY   = .0012534
INCLINATION    = 97.4087
RA_OF_ASC_NODE = 102.5274
ARG_OF_PERICENTER = 124.9329
MEAN_ANOMALY   = 235.3086

EPHEMERIS_TYPE = 0
CLASSIFICATION_TYPE = U
NORAD_CAT_ID   = 67293
ELEMENT_SET_NO = 999
REV_AT_EPOCH   = 425
BSTAR          = .34286E-3
MEAN_MOTION_DOT = .7656E-4
MEAN_MOTION_DDOT = 0

